NORAD_CAT_ID,OBJECT_NAME,OBJECT_TYPE,EPOCH,MEAN_MOTION,ECCENTRICITY,INCLINATION,RA_OF_ASC_NODE,ARG_OF_PERICENTER,MEAN_ANOMALY,BSTAR,MEAN_MOTION_DOT,MEAN_MOTION_DDOT,TLE_LINE0,TLE_LINE1,TLE_LINE2,SEMIMAJOR_AXIS,PERIOD,APOGEE,PERIGEE,DECAYED
56463.0,STARLINK-6051,PAYLOAD,2024-01-17 22:19:15,14.98317388,0.0002323,70.0024,315.6441,236.2722,123.8216,9.701e-05,1.064e-05,0.0,0 STARLINK-6051,1 56463U 23064R   24017.93003844  .00001064  00000-0  97010-4 0  9996,2 56463  70.0024 315.6441 0002323 236.2722 123.8216 14.98317388 38148,6950.232,96.108,573.711,570.482,0.0
56463.0,STARLINK-6051,PAYLOAD,2024-01-18 03:07:39,14.98314034,0.0002508,70.0023,315.1389,231.7955,128.2978,7.3853e-05,7.88e-06,0.0,0 STARLINK-6051,1 56463U 23064R   24018.13032244  .00000788  00000-0  73853-4 0  9996,2 56463  70.0023 315.1389 0002508 231.7955 128.2978 14.98314034 38538,6950.242,96.108,573.85,570.364,0.0
56463.0,STARLINK-6051,PAYLOAD,2024-01-18 04:43:48,14.98313835,0.0002453,70.0022,314.9702,233.634,126.4593,6.3035e-05,6.59e-06,0.0,0 STARLINK-6051,1 56463U 23064R   24018.19708364  .00000659  00000-0  63035-4 0  9993,2 56463  70.0022 314.9702 0002453 233.6340 126.4593 14.98313835 38183,6950.243,96.108,573.813,570.403,0.0
56463.0,STARLINK-6051,PAYLOAD,2024-01-18 22:21:15,14.98336279,0.0003372,69.9996,313.1131,280.2376,79.8403,-6.1272e-06,-1.66e-06,0.0,0 STARLINK-6051,1 56463U 23064R   24018.93143191 -.00000166  00000-0 -61272-5 0  9993,2 56463  69.9996 313.1131 0003372 280.2376  79.8403 14.98336279 38295,6950.173,96.107,574.382,569.695,0.0
56463.0,STARLINK-6051,PAYLOAD,2024-01-19 03:09:39,14.98339237,0.0002818,70.0018,312.6134,263.2826,96.8012,0.00017237,1.965e-05,0.0,0 STARLINK-6051,1 56463U 23064R   24019.13170394  .00001965  00000-0  17237-3 0  9997,2 56463  70.0018 312.6134 0002818 263.2826  96.8012 14.98339237 38680,6950.164,96.106,573.988,570.071,0.0
56463.0,STARLINK-6051,PAYLOAD,2024-01-19 04:45:47,14.9834176,0.000247,70.0011,312.4425,252.8477,107.2411,0.00014124,1.593e-05,0.0,0 STARLINK-6051,1 56463U 23064R   24019.19846304  .00001593  00000-0  14124-3 0  9993,2 56463  70.0011 312.4425 0002470 252.8477 107.2411 14.98341760 38330,6950.157,96.106,573.738,570.305,0.0
56463.0,STARLINK-6051,PAYLOAD,2024-01-19 19:11:00,14.98330738,0.0002286,70.0016,310.9278,241.733,118.3598,0.00016357,1.859e-05,0.0,0 STARLINK-6051,1 56463U 23064R   24019.79930733  .00001859  00000-0  16357-3 0  9994,2 56463  70.0016 310.9278 0002286 241.7330 118.3598 14.98330738 38785,6950.191,96.107,573.644,570.467,0.0
56463.0,STARLINK-6051,PAYLOAD,2024-01-19 22:23:16,14.98328258,0.000232,70.0016,310.5919,244.9933,115.0985,0.00011424,1.27e-05,0.0,0 STARLINK-6051,1 56463U 23064R   24019.93283007  .00001270  00000-0  11424-3 0  9992,2 56463  70.0016 310.5919 0002320 244.9933 115.0985 14.98328258 38447,6950.198,96.107,573.676,570.451,0.0
56463.0,STARLINK-6051,PAYLOAD,2024-01-20 03:11:40,14.98320171,0.0002499,70.0014,310.0864,254.3749,105.7134,0.00022636,2.608e-05,0.0,0 STARLINK-6051,1 56463U 23064R   24020.13311277  .00002608  00000-0  22636-3 0  9990,2 56463  70.0014 310.0864 0002499 254.3749 105.7134 14.98320171 38837,6950.223,96.108,573.825,570.351,0.0
56463.0,STARLINK-6051,PAYLOAD,2024-01-20 04:47:49,14.98318693,0.0002469,70.0015,309.9183,253.9491,106.1396,0.00027497,3.188e-05,0.0,0 STARLINK-6051,1 56463U 23064R   24020.19987311  .00003188  00000-0  27497-3 0  9998,2 56463  70.0015 309.9183 0002469 253.9491 106.1396 14.98318693 38487,6950.228,96.108,573.809,570.377,0.0
56463.0,STARLINK-6051,PAYLOAD,2024-01-20 19:13:01,14.98334805,0.0002299,70.0015,308.4038,248.1119,111.9795,-5.6791e-05,-7.7e-06,0.0,0 STARLINK-6051,1 56463U 23064R   24020.80071009 -.00000770  00000-0 -56791-4 0  9990,2 56463  70.0015 308.4038 0002299 248.1119 111.9795 14.98334805 38934,6950.178,96.107,573.641,570.445,0.0
56463.0,STARLINK-6051,PAYLOAD,2024-01-20 22:25:17,14.98333663,0.0002323,70.0015,308.0672,248.7441,111.347,-7.1495e-05,-9.46e-06,0.0,0 STARLINK-6051,1 56463U 23064R   24020.93423068 -.00000946  00000-0 -71495-4 0  9993,2 56463  70.0015 308.0672 0002323 248.7441 111.3470 14.98333663 38593,6950.182,96.107,573.661,570.432,0.0
56463.0,STARLINK-6051,PAYLOAD,2024-01-21 04:49:49,14.98336244,0.0002481,70.0009,307.3929,264.4434,95.6442,-5.5616e-05,-7.57e-06,0.0,0 STARLINK-6051,1 56463U 23064R   24021.20126884 -.00000757  00000-0 -55616-4 0  9997,2 56463  70.0009 307.3929 0002481 264.4434  95.6442 14.98336244 38631,6950.174,96.107,573.763,570.314,0.0
56463.0,STARLINK-6051,PAYLOAD,2024-01-21 19:15:02,14.98338585,0.0002056,70.0011,305.8778,269.7332,90.3592,-5.7343e-05,-7.77e-06,0.0,0 STARLINK-6051,1 56463U 23064R   24021.80210702 -.00000777  00000-0 -57343-4 0  9997,2 56463  70.0011 305.8778 0002056 269.7332  90.3592 14.98338585 39080,6950.166,96.106,573.46,570.602,0.0
56463.0,STARLINK-6051,PAYLOAD,2024-01-21 22:27:18,14.98326643,0.0002647,70.0008,305.5417,272.573,87.5126,6.7031e-05,7.07e-06,0.0,0 STARLINK-6051,1 56463U 23064R   24021.93562964  .00000707  00000-0  67031-4 0  9997,2 56463  70.0008 305.5417 0002647 272.5730  87.5126 14.98326643 38748,6950.203,96.107,573.908,570.229,0.0
56463.0,STARLINK-6051,PAYLOAD,2024-01-22 04:51:50,14.98330094,0.0002687,70.0008,304.8692,272.9624,87.1227,0.00010188,1.123e-05,0.0,0 STARLINK-6051,1 56463U 23064R   24022.20266717  .00001123  00000-0  10188-3 0  9998,2 56463  70.0008 304.8692 0002687 272.9624  87.1227 14.98330094 38782,6950.193,96.107,573.925,570.19,0.0
56463.0,STARLINK-6051,PAYLOAD,2024-01-22 19:17:03,14.98328217,0.0002514,70.0007,303.3551,271.0666,89.0205,5.2586e-05,5.35e-06,0.0,0 STARLINK-6051,1 56463U 23064R   24022.80350923  .00000535  00000-0  52586-4 0  9992,2 56463  70.0007 303.3551 0002514 271.0666  89.0205 14.98328217 39236,6950.198,96.107,573.811,570.316,0.0
56463.0,STARLINK-6051,PAYLOAD,2024-01-22 22:29:19,14.98327843,0.0002506,70.0008,303.0168,272.8598,87.2275,4.8167e-05,4.82e-06,0.0,0 STARLINK-6051,1 56463U 23064R   24022.93702929  .00000482  00000-0  48167-4 0  9994,2 56463  70.0008 303.0168 0002506 272.8598  87.2275 14.98327843 38894,6950.2,96.107,573.806,570.323,0.0
56463.0,STARLINK-6051,PAYLOAD,2024-01-23 03:17:43,14.98347257,0.000237,70.0007,302.513,273.1559,86.9329,-0.00021259,-2.63e-05,0.0,0 STARLINK-6051,1 56463U 23064R   24023.13730334 -.00002630  00000-0 -21259-3 0  9999,2 56463  70.0007 302.5130 0002370 273.1559  86.9329 14.98347257 39287,6950.14,96.106,573.652,570.357,0.0
56463.0,STARLINK-6051,PAYLOAD,2024-01-23 04:53:50,14.98349909,0.0002448,70.0008,302.3452,275.3643,84.7237,-0.00021414,-2.648e-05,0.0,0 STARLINK-6051,1 56463U 23064R   24023.20406123 -.00002648  00000-0 -21414-3 0  9995,2 56463  70.0008 302.3452 0002448 275.3643  84.7237 14.98349909 38938,6950.131,96.106,573.698,570.295,0.0
56463.0,STARLINK-6051,PAYLOAD,2024-01-23 22:31:19,14.98331835,0.0002584,70.0012,300.4941,239.9972,120.0931,3.4857e-05,3.23e-06,0.0,0 STARLINK-6051,1 56463U 23064R   24023.93842368  .00000323  00000-0  34857-4 0  9992,2 56463  70.0012 300.4941 0002584 239.9972 120.0931 14.98331835 39044,6950.187,96.107,573.848,570.256,0.0
56463.0,STARLINK-6051,PAYLOAD,2024-01-24 03:19:44,14.98328874,0.0002588,70.0012,299.9889,242.6433,117.4463,1.4491e-05,8e-07,0.0,0 STARLINK-6051,1 56463U 23064R   24024.13870617  .00000080  00000-0  14491-4 0  9995,2 56463  70.0012 299.9889 0002588 242.6433 117.4463 14.98328874 39436,6950.196,96.107,573.86,570.263,0.0
56463.0,STARLINK-6051,PAYLOAD,2024-01-24 04:55:52,14.98329072,0.0002583,70.0012,299.8205,251.7832,108.3046,2.3416e-05,1.86e-06,0.0,0 STARLINK-6051,1 56463U 23064R   24024.20546652  .00000186  00000-0  23416-4 0  9996,2 56463  70.0012 299.8205 0002583 251.7832 108.3046 14.98329072 39084,6950.196,96.107,573.856,570.266,0.0
56463.0,STARLINK-6051,PAYLOAD,2024-01-24 22:33:21,14.98329551,0.000263,70.001,297.9688,243.6476,116.4413,-2.227e-05,-3.59e-06,0.0,0 STARLINK-6051,1 56463U 23064R   24024.93982716 -.00000359  00000-0 -22270-4 0  9992,2 56463  70.0010 297.9688 0002630 243.6476 116.4413 14.98329551 39195,6950.194,96.107,573.887,570.231,0.0
56463.0,STARLINK-6051,PAYLOAD,2024-01-25 03:21:45,14.9832725,0.0002643,70.0009,297.4637,245.754,114.3343,-4.9449e-05,-6.83e-06,0.0,0 STARLINK-6051,1 56463U 23064R   24025.14010960 -.00000683  00000-0 -49449-4 0  9996,2 56463  70.0009 297.4637 0002643 245.7540 114.3343 14.98327250 39587,6950.201,96.107,573.903,570.229,0.0
56463.0,STARLINK-6051,PAYLOAD,2024-01-25 20:59:14,14.98327526,0.0002675,70.0008,295.6113,247.0418,113.0459,1.0251e-05,2.9e-07,0.0,0 STARLINK-6051,1 56463U 23064R   24025.87446853  .00000029  00000-0  10251-4 0  9991,2 56463  70.0008 295.6113 0002675 247.0418 113.0459 14.98327526 39332,6950.201,96.107,573.925,570.206,0.0
56463.0,STARLINK-6051,PAYLOAD,2024-01-26 03:23:46,14.98328141,0.0002667,70.0008,294.9381,245.9228,114.1652,1.8137e-05,1.23e-06,0.0,0 STARLINK-6051,1 56463U 23064R   24026.14150833  .00000123  00000-0  18137-4 0  9998,2 56463  70.0008 294.9381 0002667 245.9228 114.1652 14.98328141 39733,6950.199,96.107,573.917,570.21,0.0
56463.0,STARLINK-6051,PAYLOAD,2024-01-26 19:25:08,14.98314176,0.0002577,70.0014,293.2552,235.2888,124.8028,-4.4205e-05,-6.2e-06,0.0,0 STARLINK-6051,1 56463U 23064R   24026.80912252 -.00000620  00000-0 -44205-4 0  9991,2 56463  70.0014 293.2552 0002577 235.2888 124.8028 14.98314176 39835,6950.242,96.108,573.898,570.316,0.0
56463.0,STARLINK-6051,PAYLOAD,2024-01-27 03:25:48,14.9831182,0.0002554,70.0015,292.4136,239.3703,120.7204,-5.5463e-05,-7.54e-06,0.0,0 STARLINK-6051,1 56463U 23064R   24027.14292788 -.00000754  00000-0 -55463-4 0  9990,2 56463  70.0015 292.4136 0002554 239.3703 120.7204 14.98311820 39521,6950.249,96.108,573.889,570.339,0.0
56463.0,STARLINK-6051,PAYLOAD,2024-01-27 19:27:08,14.98330418,0.0003217,69.9993,290.7275,262.4236,97.6557,3.4415e-05,3.18e-06,0.0,0 STARLINK-6051,1 56463U 23064R   24027.81051553  .00000318  00000-0  34415-4 0  9995,2 56463  69.9993 290.7275 0003217 262.4236  97.6557 14.98330418 39980,6950.192,96.107,574.292,569.821,0.0
